{
  "type": "FeatureCollection",
  "features": [
    {
      "type": "Feature",
      "properties": {
        "norad_id": 38250,
        "name": "BEIDOU-2 M3 (C11)",
        "group": "beidou",
        "lat": -26.668662514597333,
        "lon": 150.73083990280873,
        "alt_km": 21500.07245314146,
        "timestamp": "2025-12-20T16:47:36.551798+00:00",
        "meta_object_name": "BEIDOU-2 M3 (C11)",
        "meta_object_id": "2012-018A",
        "meta_epoch": "2025-12-19T07:23:03.381792",
        "meta_mean_motion": 1.86230015,
        "meta_eccentricity": 0.0024195,
        "meta_inclination": 55.9145,
        "meta_ra_of_asc_node": 310.9364,
        "meta_arg_of_pericenter": 274.9131,
        "meta_mean_anomaly": 84.7979,
        "meta_ephemeris_type": 0,
        "meta_classification_type": "U",
        "meta_norad_cat_id": 38250,
        "meta_element_set_no": 999,
        "meta_rev_at_epoch": 9259,
        "meta_bstar": 0,
        "meta_mean_motion_dot": -7.8e-07,
        "meta_mean_motion_ddot": 0,
        "tle_line1": "1 38250U 12018A   25353.30767803 -.00000078  00000+0  00000+0 0  9996",
        "tle_line2": "2 38250  55.9145 310.9364 0024195 274.9131  84.7979  1.86230015 92598"
      },
      "geometry": {
        "type": "Point",
        "coordinates": [
          150.73083990280873,
          -26.668662514597333
        ]
      }
    },
    {
      "type": "Feature",
      "properties": {
        "norad_id": 38251,
        "name": "BEIDOU-2 M4 (C12)",
        "group": "beidou",
        "lat": -54.1993478099983,
        "lon": -159.60131699656299,
        "alt_km": 21493.608648450845,
        "timestamp": "2025-12-20T16:47:36.551809+00:00",
        "meta_object_name": "BEIDOU-2 M4 (C12)",
        "meta_object_id": "2012-018B",
        "meta_epoch": "2025-12-19T05:45:13.599936",
        "meta_mean_motion": 1.86229684,
        "meta_eccentricity": 0.00153935,
        "meta_inclination": 55.8157,
        "meta_ra_of_asc_node": 310.167,
        "meta_arg_of_pericenter": 278.4783,
        "meta_mean_anomaly": 81.3347,
        "meta_ephemeris_type": 0,
        "meta_classification_type": "U",
        "meta_norad_cat_id": 38251,
        "meta_element_set_no": 999,
        "meta_rev_at_epoch": 9259,
        "meta_bstar": 0,
        "meta_mean_motion_dot": -7.8e-07,
        "meta_mean_motion_ddot": 0,
        "tle_line1": "1 38251U 12018B   25353.23974074 -.00000078  00000+0  00000+0 0  9999",
        "tle_line2": "2 38251  55.8157 310.1670 0015393 278.4783  81.3347  1.86229684 92597"
      },
      "geometry": {
        "type": "Point",
        "coordinates": [
          -159.60131699656299,
          -54.1993478099983
        ]
      }
    },
    {
      "type": "Feature",
      "properties": {
        "norad_id": 38775,
        "name": "BEIDOU-2 M6 (C14)",
        "group": "beidou",
        "lat": 56.306183298319766,
        "lon": 163.85511299399803,
        "alt_km": 21531.871705381818,
        "timestamp": "2025-12-20T16:47:36.551820+00:00",
        "meta_object_name": "BEIDOU-2 M6 (C14)",
        "meta_object_id": "2012-050B",
        "meta_epoch": "2025-12-19T11:42:06.639840",
        "meta_mean_motion": 1.86230927,
        "meta_eccentricity": 0.0011333,
        "meta_inclination": 56.384,
        "meta_ra_of_asc_node": 68.8435,
        "meta_arg_of_pericenter": 343.6526,
        "meta_mean_anomaly": 16.3469,
        "meta_ephemeris_type": 0,
        "meta_classification_type": "U",
        "meta_norad_cat_id": 38775,
        "meta_element_set_no": 999,
        "meta_rev_at_epoch": 8996,
        "meta_bstar": 0,
        "meta_mean_motion_dot": -5.2e-07,
        "meta_mean_motion_ddot": 0,
        "tle_line1": "1 38775U 12050B   25353.48757685 -.00000052  00000+0  00000+0 0  9992",
        "tle_line2": "2 38775  56.3840  68.8435 0011333 343.6526  16.3469  1.86230927 89961"
      },
      "geometry": {
        "type": "Point",
        "coordinates": [
          163.85511299399803,
          56.306183298319766
        ]
      }
    },
    {
      "type": "Feature",
      "properties": {
        "norad_id": 38953,
        "name": "BEIDOU-2 G6 (C02)",
        "group": "beidou",
        "lat": -0.6640960918177196,
        "lon": 65.4728710308726,
        "alt_km": 35768.43292913039,
        "timestamp": "2025-12-20T16:47:36.551858+00:00",
        "meta_object_name": "BEIDOU-2 G6 (C02)",
        "meta_object_id": "2012-059A",
        "meta_epoch": "2025-12-20T08:29:35.831616",
        "meta_mean_motion": 1.0026897,
        "meta_eccentricity": 0.0008257,
        "meta_inclination": 3.9675,
        "meta_ra_of_asc_node": 75.4322,
        "meta_arg_of_pericenter": 292.2593,
        "meta_mean_anomaly": 292.8441,
        "meta_ephemeris_type": 0,
        "meta_classification_type": "U",
        "meta_norad_cat_id": 38953,
        "meta_element_set_no": 999,
        "meta_rev_at_epoch": 4811,
        "meta_bstar": 0,
        "meta_mean_motion_dot": -1.54e-06,
        "meta_mean_motion_ddot": 0,
        "tle_line1": "1 38953U 12059A   25354.35388694 -.00000154  00000+0  00000+0 0  9999",
        "tle_line2": "2 38953   3.9675  75.4322 0008257 292.2593 292.8441  1.00268970 48114"
      },
      "geometry": {
        "type": "Point",
        "coordinates": [
          65.4728710308726,
          -0.6640960918177196
        ]
      }
    },
    {
      "type": "Feature",
      "properties": {
        "norad_id": 40549,
        "name": "BEIDOU-3S IGSO-1S (C31)",
        "group": "beidou",
        "lat": 30.598759215119667,
        "lon": 87.32295781881375,
        "alt_km": 35690.76232915468,
        "timestamp": "2025-12-20T16:47:36.551882+00:00",
        "meta_object_name": "BEIDOU-3S IGSO-1S (C31)",
        "meta_object_id": "2015-019A",
        "meta_epoch": "2025-12-18T19:55:38.829792",
        "meta_mean_motion": 1.00292047,
        "meta_eccentricity": 0.0036331,
        "meta_inclination": 49.5404,
        "meta_ra_of_asc_node": 297.6395,
        "meta_arg_of_pericenter": 194.0028,
        "meta_mean_anomaly": 349.3621,
        "meta_ephemeris_type": 0,
        "meta_classification_type": "U",
        "meta_norad_cat_id": 40549,
        "meta_element_set_no": 999,
        "meta_rev_at_epoch": 3926,
        "meta_bstar": 0,
        "meta_mean_motion_dot": -1.83e-06,
        "meta_mean_motion_ddot": 0,
        "tle_line1": "1 40549U 15019A   25352.83031053 -.00000183  00000+0  00000+0 0  9999",
        "tle_line2": "2 40549  49.5404 297.6395 0036331 194.0028 349.3621  1.00292047 39264"
      },
      "geometry": {
        "type": "Point",
        "coordinates": [
          87.32295781881375,
          30.598759215119667
        ]
      }
    },
    {
      "type": "Feature",
      "properties": {
        "norad_id": 40748,
        "name": "BEIDOU-3S M2S (C58)",
        "group": "beidou",
        "lat": 44.51784883423541,
        "lon": 84.7348265233957,
        "alt_km": 21551.63505902741,
        "timestamp": "2025-12-20T16:47:36.551895+00:00",
        "meta_object_name": "BEIDOU-3S M2S (C58)",
        "meta_object_id": "2015-037A",
        "meta_epoch": "2025-12-19T23:33:43.414272",
        "meta_mean_motion": 1.86229501,
        "meta_eccentricity": 0.0012159,
        "meta_inclination": 55.0323,
        "meta_ra_of_asc_node": 308.2143,
        "meta_arg_of_pericenter": 269.0656,
        "meta_mean_anomaly": 90.7858,
        "meta_ephemeris_type": 0,
        "meta_classification_type": "U",
        "meta_norad_cat_id": 40748,
        "meta_element_set_no": 999,
        "meta_rev_at_epoch": 7078,
        "meta_bstar": 0,
        "meta_mean_motion_dot": -7.2e-07,
        "meta_mean_motion_ddot": 0,
        "tle_line1": "1 40748U 15037A   25353.98175248 -.00000072  00000+0  00000+0 0  9999",
        "tle_line2": "2 40748  55.0323 308.2143 0012159 269.0656  90.7858  1.86229501 70789"
      },
      "geometry": {
        "type": "Point",
        "coordinates": [
          84.7348265233957,
          44.51784883423541
        ]
      }
    },
    {
      "type": "Feature",
      "properties": {
        "norad_id": 40749,
        "name": "BEIDOU-3S M1S (C57)",
        "group": "beidou",
        "lat": -25.96125109072237,
        "lon": -71.74842971707646,
        "alt_km": 21520.677454195993,
        "timestamp": "2025-12-20T16:47:36.551907+00:00",
        "meta_object_name": "BEIDOU-3S M1S (C57)",
        "meta_object_id": "2015-037B",
        "meta_epoch": "2025-12-19T03:17:32.841888",
        "meta_mean_motion": 1.86254044,
        "meta_eccentricity": 0.0003631,
        "meta_inclination": 55.0296,
        "meta_ra_of_asc_node": 308.2337,
        "meta_arg_of_pericenter": 1.0538,
        "meta_mean_anomaly": 358.9355,
        "meta_ephemeris_type": 0,
        "meta_classification_type": "U",
        "meta_norad_cat_id": 40749,
        "meta_element_set_no": 999,
        "meta_rev_at_epoch": 7077,
        "meta_bstar": 0,
        "meta_mean_motion_dot": -7.8e-07,
        "meta_mean_motion_ddot": 0,
        "tle_line1": "1 40749U 15037B   25353.13718567 -.00000078  00000+0  00000+0 0  9990",
        "tle_line2": "2 40749  55.0296 308.2337 0003631   1.0538 358.9355  1.86254044 70772"
      },
      "geometry": {
        "type": "Point",
        "coordinates": [
          -71.74842971707646,
          -25.96125109072237
        ]
      }
    }
  ]
}